GLOBALSTAR M023         
1 25621U 99004A   25300.67096845 -.00000122  00000+0 -10258-3 0  9998
2 25621  52.0135  10.0225 0010347  61.7280 103.4378 12.62507432232468
GLOBALSTAR M040         
1 25622U 99004B   25300.69939521 -.00000054  00000+0  27555-3 0  9999
2 25622  51.9943  14.2863 0000425 352.4860 180.3973 12.62020728231987
GLOBALSTAR M036         
1 25623U 99004C   25300.87497566 -.00000008  00000+0  10940-2 0  9996
2 25623  51.9963 250.5805 0010628 306.9307  83.3270 11.86613055194736
GLOBALSTAR M038         
1 25624U 99004D   25300.70677316 -.00000071  00000+0  20178-3 0  9997
2 25624  51.9990  49.9251 0001261 349.9417 158.2840 12.32534517218711
GLOBALSTAR M022         
1 25649U 99012A   25300.42642593 -.00000062  00000+0  30148-3 0  9999
2 25649  52.0045 291.4142 0002933  71.5671  84.7688 12.02505186192284
GLOBALSTAR M041         
1 25650U 99012B   25300.85838909 -.00000110  00000+0 -32367-3 0  9996
2 25650  52.0002 175.7354 0000739 184.3769 175.7061 11.96680352194167
GLOBALSTAR M046         
1 25651U 99012C   25300.60469404 -.00000102  00000+0 -14624-3 0  9997
2 25651  52.0051 236.2292 0001945 139.0195  32.7054 12.09415555199688
GLOBALSTAR M037         
1 25652U 99012D   25300.87980103 -.00000084  00000+0  11168-3 0  9999
2 25652  51.9980 139.9571 0002908 108.7644 356.2169 12.62453302228033
